NORAD_CAT_ID,OBJECT_NAME,OBJECT_TYPE,EPOCH,MEAN_MOTION,ECCENTRICITY,INCLINATION,RA_OF_ASC_NODE,ARG_OF_PERICENTER,MEAN_ANOMALY,BSTAR,MEAN_MOTION_DOT,MEAN_MOTION_DDOT,TLE_LINE0,TLE_LINE1,TLE_LINE2,SEMIMAJOR_AXIS,PERIOD,APOGEE,PERIGEE,DECAYED
55399.0,STARLINK-5276,PAYLOAD,2023-09-01 09:03:02,14.98338519,0.0002911,69.9999,224.8011,265.7292,94.3534,-0.00016225,-2.029e-05,0.0,0 STARLINK-5276,1 55399U 23014J   23244.37711245 -.00002029  00000-0 -16225-3 0  9990,2 55399  69.9999 224.8011 0002911 265.7292  94.3534 14.98338519 33261,6950.167,96.106,574.055,570.008,0.0
55399.0,STARLINK-5276,PAYLOAD,2023-09-01 15:27:34,14.98347689,0.0003159,69.9997,224.1285,270.4592,89.6205,-0.00031301,-3.828e-05,0.0,0 STARLINK-5276,1 55399U 23014J   23244.64414947 -.00003828  00000-0 -31301-3 0  9999,2 55399  69.9997 224.1285 0003159 270.4592  89.6205 14.98347689 34245,6950.138,96.106,574.199,569.808,0.0
55399.0,STARLINK-5276,PAYLOAD,2023-09-02 15:29:35,14.98333823,0.0003353,69.9996,221.6029,269.4845,90.5929,3.7367e-05,3.53e-06,0.0,0 STARLINK-5276,1 55399U 23014J   23245.64554788  .00000353  00000-0  37367-4 0  9995,2 55399  69.9996 221.6029 0003353 269.4845  90.5929 14.98333823 33458,6950.181,96.107,574.376,569.716,0.0
55399.0,STARLINK-5276,PAYLOAD,2023-09-03 01:06:24,14.98326791,0.0002997,70.0002,220.5939,269.86,90.2216,-1.2512e-05,-2.42e-06,0.0,0 STARLINK-5276,1 55399U 23014J   23246.04611399 -.00000242  00000-0 -12512-4 0  9996,2 55399  70.0002 220.5939 0002997 269.8600  90.2216 14.98326791 33512,6950.203,96.107,574.151,569.985,0.0
55399.0,STARLINK-5276,PAYLOAD,2023-09-03 07:30:56,14.98328071,0.000295,70.0005,219.921,268.6153,91.4668,7.078e-06,-9e-08,0.0,0 STARLINK-5276,1 55399U 23014J   23246.31315296 -.00000009  00000-0  70780-5 0  9995,2 55399  70.0005 219.9210 0002950 268.6153  91.4668 14.98328071 34493,6950.199,96.107,574.114,570.014,0.0
55399.0,STARLINK-5276,PAYLOAD,2023-09-04 07:32:57,14.98322874,0.0003014,70.0003,217.3957,271.1342,88.9472,-3.0213e-05,-4.53e-06,0.0,0 STARLINK-5276,1 55399U 23014J   23247.31455774 -.00000453  00000-0 -30213-4 0  9992,2 55399  70.0003 217.3957 0003014 271.1342  88.9472 14.98322874 33704,6950.215,96.107,574.175,569.985,0.0
55399.0,STARLINK-5276,PAYLOAD,2023-09-05 07:34:58,14.98329602,0.0003093,70.0003,214.8709,271.5305,88.55,3.0058e-05,2.66e-06,0.0,0 STARLINK-5276,1 55399U 23014J   23248.31595338  .00000266  00000-0  30058-4 0  9991,2 55399  70.0003 214.8709 0003093 271.5305  88.5500 14.98329602 33851,6950.194,96.107,574.209,569.909,0.0
55399.0,STARLINK-5276,PAYLOAD,2023-09-06 09:13:07,14.98332607,0.0003126,70.0003,212.1772,270.3225,89.7576,0.00010276,1.133e-05,0.0,0 STARLINK-5276,1 55399U 23014J   23249.38410998  .00001133  00000-0  10276-3 0  9990,2 55399  70.0003 212.1772 0003126 270.3225  89.7576 14.98332607 34011,6950.185,96.107,574.222,569.877,0.0
55399.0,STARLINK-5276,PAYLOAD,2023-09-06 20:26:03,14.98331148,0.0003025,70.0006,210.9989,270.6179,89.4633,-3.3171e-05,-4.89e-06,0.0,0 STARLINK-5276,1 55399U 23014J   23249.85143447 -.00000489  00000-0 -33171-4 0  9999,2 55399  70.0006 210.9989 0003025 270.6179  89.4633 14.98331148 35021,6950.189,96.107,574.157,569.952,0.0
55399.0,STARLINK-5276,PAYLOAD,2023-09-07 07:39:00,14.98330123,0.0002895,70.0009,209.8208,270.9276,89.1551,3.1024e-05,2.77e-06,0.0,0 STARLINK-5276,1 55399U 23014J   23250.31875291  .00000277  00000-0  31024-4 0  9999,2 55399  70.0009 209.8208 0002895 270.9276  89.1551 14.98330123 34151,6950.193,96.107,574.07,570.045,0.0
55399.0,STARLINK-5276,PAYLOAD,2023-09-08 07:41:01,14.98332735,0.0002689,70.0015,207.2966,266.1413,93.9438,5.3195e-06,-2.9e-07,0.0,0 STARLINK-5276,1 55399U 23014J   23251.32015086 -.00000029  00000-0  53195-5 0  9999,2 55399  70.0015 207.2966 0002689 266.1413  93.9438 14.98332735 34307,6950.184,96.107,573.918,570.181,0.0
55399.0,STARLINK-5276,PAYLOAD,2023-09-09 06:06:53,14.98330907,0.0002762,70.0016,204.9403,265.9054,94.179,-3.4751e-06,-1.34e-06,0.0,0 STARLINK-5276,1 55399U 23014J   23252.25479059 -.00000134  00000-0 -34751-5 0  9991,2 55399  70.0016 204.9403 0002762 265.9054  94.1790 14.98330907 35380,6950.19,96.107,573.975,570.135,0.0
55399.0,STARLINK-5276,PAYLOAD,2023-09-09 14:07:34,14.98323309,0.0002655,70.0021,204.0986,272.2383,87.8472,-7.5781e-05,-9.97e-06,0.0,0 STARLINK-5276,1 55399U 23014J   23252.58859859 -.00000997  00000-0 -75781-4 0  9991,2 55399  70.0021 204.0986 0002655 272.2383  87.8472 14.98323309 34495,6950.214,96.107,573.924,570.233,0.0
55399.0,STARLINK-5276,PAYLOAD,2023-09-10 01:20:32,14.98310932,0.0002529,70.0027,202.9235,257.0151,103.0725,-0.00016812,-2.097e-05,0.0,0 STARLINK-5276,1 55399U 23014J   23253.05593161 -.00002097  00000-0 -16812-3 0  9997,2 55399  70.0027 202.9235 0002529 257.0151 103.0725 14.98310932 34567,6950.252,96.108,573.875,570.359,0.0
55399.0,STARLINK-5276,PAYLOAD,2023-09-10 06:08:56,14.9831477,0.0002775,70.0013,202.4162,264.8451,95.2391,-0.00013375,-1.688e-05,0.0,0 STARLINK-5276,1 55399U 23014J   23253.25620989 -.00001688  00000-0 -13375-3 0  9994,2 55399  70.0013 202.4162 0002775 264.8451  95.2391 14.98314770 35531,6950.24,96.108,574.034,570.176,0.0
55399.0,STARLINK-5276,PAYLOAD,2023-09-11 02:58:41,14.98323522,0.0002866,70.0013,200.2279,265.511,94.5721,-9.431e-06,-2.05e-06,0.0,0 STARLINK-5276,1 55399U 23014J   23254.12408593 -.00000205  00000-0 -94310-5 0  9990,2 55399  70.0013 200.2279 0002866 265.5110  94.5721 14.98323522 34721,6950.213,96.107,574.07,570.086,0.0
55399.0,STARLINK-5276,PAYLOAD,2023-09-11 07:47:04,14.98327718,0.0002839,70.0014,199.723,265.5962,94.4872,2.8301e-05,2.45e-06,0.0,0 STARLINK-5276,1 55399U 23014J   23254.32436290  .00000245  00000-0  28301-4 0  9995,2 55399  70.0014 199.7230 0002839 265.5962  94.4872 14.98327718 35690,6950.2,96.107,574.038,570.092,0.0
55399.0,STARLINK-5276,PAYLOAD,2023-09-11 20:36:08,14.98328444,0.0002923,70.0011,198.3762,267.4476,92.6348,0.00028965,3.365e-05,0.0,0 STARLINK-5276,1 55399U 23014J   23254.85843520  .00003365  00000-0  28965-3 0  9992,2 55399  70.0011 198.3762 0002923 267.4476  92.6348 14.98328444 34837,6950.198,96.107,574.094,570.031,0.0
55399.0,STARLINK-5276,PAYLOAD,2023-09-12 06:12:56,14.98334968,0.0002452,70.0024,197.3683,267.9193,92.1685,0.00030389,3.535e-05,0.0,0 STARLINK-5276,1 55399U 23014J   23255.25899082  .00003535  00000-0  30389-3 0  9993,2 55399  70.0024 197.3683 0002452 267.9193  92.1685 14.98334968 35838,6950.178,96.107,573.747,570.338,0.0
55399.0,STARLINK-5276,PAYLOAD,2023-09-12 20:38:09,14.98339663,0.0002128,70.0032,195.855,253.2565,106.836,0.00011497,1.279e-05,0.0,0 STARLINK-5276,1 55399U 23014J   23255.85983014  .00001279  00000-0  11497-3 0  9990,2 55399  70.0032 195.8550 0002128 253.2565 106.8360 14.98339663 35924,6950.163,96.106,573.507,570.549,0.0
55399.0,STARLINK-5276,PAYLOAD,2023-09-13 01:26:33,14.98338736,0.0002676,70.0016,195.3477,261.4282,98.6574,5.1502e-05,5.22e-06,0.0,0 STARLINK-5276,1 55399U 23014J   23256.06011075  .00000522  00000-0  51502-4 0  9995,2 55399  70.0016 195.3477 0002676 261.4282  98.6574 14.98338736 35019,6950.166,96.106,573.891,570.171,0.0
55399.0,STARLINK-5276,PAYLOAD,2023-09-13 06:14:57,14.98341925,0.0002575,70.0019,194.8433,257.1662,102.9209,8.8783e-05,9.67e-06,0.0,0 STARLINK-5276,1 55399U 23014J   23256.26038604  .00000967  00000-0  88783-4 0  9998,2 55399  70.0019 194.8433 0002575 257.1662 102.9209 14.98341925 35984,6950.156,96.106,573.811,570.231,0.0
55399.0,STARLINK-5276,PAYLOAD,2023-09-13 22:16:18,14.98333039,0.000219,70.0036,193.1626,239.2483,120.846,-7.4093e-05,-9.77e-06,0.0,0 STARLINK-5276,1 55399U 23014J   23256.92799270 -.00000977  00000-0 -74093-4 0  9996,2 55399  70.0036 193.1626 0002190 239.2483 120.8460 14.98333039 36081,6950.183,96.107,573.571,570.526,0.0
55399.0,STARLINK-5276,PAYLOAD,2023-09-14 03:04:42,14.98334901,0.0002481,70.0022,192.6557,256.3903,103.698,-0.00018551,-2.306e-05,0.0,0 STARLINK-5276,1 55399U 23014J   23257.12827356 -.00002306  00000-0 -18551-3 0  9990,2 55399  70.0022 192.6557 0002481 256.3903 103.6980 14.98334901 35177,6950.178,96.107,573.767,570.318,0.0
55399.0,STARLINK-5276,PAYLOAD,2023-09-14 06:16:58,14.98336867,0.0002714,70.0016,192.3177,261.5263,98.5588,-0.00017981,-2.238e-05,0.0,0 STARLINK-5276,1 55399U 23014J   23257.26179141 -.00002238  00000-0 -17981-3 0  9997,2 55399  70.0016 192.3177 0002714 261.5263  98.5588 14.98336867 36137,6950.172,96.107,573.923,570.15,0.0
55399.0,STARLINK-5276,PAYLOAD,2023-09-14 20:42:11,14.98331402,0.0002668,70.0014,190.8029,265.5115,94.5739,-5.4804e-05,-7.47e-06,0.0,0 STARLINK-5276,1 55399U 23014J   23257.86263007 -.00000747  00000-0 -54804-4 0  9997,2 55399  70.0014 190.8029 0002668 265.5115  94.5739 14.98331402 36226,6950.189,96.107,573.908,570.199,0.0
55399.0,STARLINK-5276,PAYLOAD,2023-09-15 06:18:59,14.9833385,0.0002574,70.0016,189.7924,269.0455,91.0409,-1.5002e-05,-2.72e-06,0.0,0 STARLINK-5276,1 55399U 23014J   23258.26318724 -.00000272  00000-0 -15002-4 0  9999,2 55399  70.0016 189.7924 0002574 269.0455  91.0409 14.98333850 35348,6950.181,96.107,573.835,570.257,0.0
55399.0,STARLINK-5276,PAYLOAD,2023-09-16 04:44:52,14.98328153,0.0002535,70.0016,187.4359,266.7803,93.3066,0.00015184,1.719e-05,0.0,0 STARLINK-5276,1 55399U 23014J   23259.19782542  .00001719  00000-0  15184-3 0  9990,2 55399  70.0016 187.4359 0002535 266.7803  93.3066 14.98328153 36427,6950.199,96.107,573.825,570.302,0.0
55399.0,STARLINK-5276,PAYLOAD,2023-09-17 01:34:37,14.98329334,0.0002757,70.0015,185.2479,270.5518,89.5325,-1.3153e-05,-2.5e-06,0.0,0 STARLINK-5276,1 55399U 23014J   23260.06570982 -.00000250  00000-0 -13153-4 0  9997,2 55399  70.0015 185.2479 0002757 270.5518  89.5325 14.98329334 35614,6950.195,96.107,573.976,570.144,0.0
55399.0,STARLINK-5276,PAYLOAD,2023-09-17 04:46:53,14.9833131,0.0002698,70.0016,184.9112,270.6604,89.4246,6.4854e-06,-1.6e-07,0.0,0 STARLINK-5276,1 55399U 23014J   23260.19922809 -.00000016  00000-0  64854-5 0  9994,2 55399  70.0016 184.9112 0002698 270.6604  89.4246 14.98331310 36570,6950.189,96.107,573.929,570.179,0.0
